QIANFAN-89              
1 63175U 25046S   26028.90750096  .00000248  00000+0  36498-3 0  9999
2 63175  88.9796 315.1660 0017031 356.2528   3.8492 13.50967327 53777
QIANFAN-90              
1 63176U 25046T   26028.93624237  .00000256  00000+0  37805-3 0  9992
2 63176  88.9796 315.1354 0013926 356.0418   4.0620 13.50968695 53790
QIANFAN-91              
1 66033U 25233A   26028.96890529  .00000067  00000+0  85189-4 0  9996
2 66033  88.9910  57.2955 0001829  89.5331 270.6030 13.50991429 14384
QIANFAN-92              
1 66034U 25233B   26028.97713142  .00000029  00000+0  26194-4 0  9992
2 66034  88.9893  57.2892 0002036  90.5103 269.6282 13.50994849 14381
QIANFAN-93              
1 66035U 25233C   26028.98535454  .00000070  00000+0  89096-4 0  9998
2 66035  88.9920  57.3026 0001894  89.3330 270.8038 13.50994166 14387
QIANFAN-94              
1 66036U 25233D   26028.96828992  .00000125  00000+0  17804-3 0  9997
2 66036  89.0022  57.2173 0015859 249.2657 110.6795 13.50178010 14439
QIANFAN-95              
1 66037U 25233E   26028.96529842  .00000026  00000+0  11878-4 0  9996
2 66037  88.9916  56.8097 0011374 250.8785 109.1153 13.83084229 14657
QIANFAN-96              
1 66038U 25233F   26028.93186837  .00000061  00000+0  75935-4 0  9990
2 66038  88.9912  57.3101 0001766  88.6885 271.4469 13.50991788 14371
